{
  "type": "FeatureCollection",
  "name": "India-Sri Lanka Maritime Boundary Line (IMBL)",
  "description": "Simplified IMBL waypoints for geofencing. Source: UNCLOS delimitation reference (public domain). For production use, replace with authoritative survey data.",
  "features": [
    {
      "type": "Feature",
      "properties": {
        "name": "IMBL",
        "description": "India–Sri Lanka Maritime Boundary Line (simplified)",
        "source": "UNCLOS reference (public domain)",
        "color": "#ef4444",
        "dash": true
      },
      "geometry": {
        "type": "LineString",
        "coordinates": [
          [80.12, 10.00],
          [80.05, 9.50],
          [79.95, 9.00],
          [79.80, 8.50],
          [79.70, 8.00],
          [79.65, 7.50],
          [79.60, 7.00]
        ]
      }
    }
  ]
}
