{
  "type": "FeatureCollection",
  "name": "india_landmass_simplified",
  "description": "Simplified polygon of the Indian subcontinent for marine route land masking. ~120 vertices covering mainland India, Andaman & Nicobar, and Lakshadweep. NOT cartographically precise — designed for route-planner grid filtering.",
  "features": [
    {
      "type": "Feature",
      "properties": { "name": "India Mainland", "region": "mainland" },
      "geometry": {
        "type": "Polygon",
        "coordinates": [[
          [68.20, 23.60],
          [68.50, 23.80],
          [68.80, 23.40],
          [69.30, 22.80],
          [69.60, 22.20],
          [69.80, 21.80],
          [70.00, 21.10],
          [70.20, 20.70],
          [70.80, 20.70],
          [71.20, 20.80],
          [72.00, 21.10],
          [72.20, 21.30],
          [72.60, 21.50],
          [72.80, 21.00],
          [72.60, 20.50],
          [72.70, 20.00],
          [72.80, 19.50],
          [72.85, 19.00],
          [72.90, 18.60],
          [73.00, 18.00],
          [73.20, 17.50],
          [73.30, 17.00],
          [73.50, 16.50],
          [73.70, 16.00],
          [73.80, 15.50],
          [73.90, 15.20],
          [74.10, 14.80],
          [74.30, 14.50],
          [74.50, 14.20],
          [74.60, 13.90],
          [74.70, 13.50],
          [74.80, 13.00],
          [74.85, 12.60],
          [74.80, 12.20],
          [74.90, 11.80],
          [75.00, 11.50],
          [75.30, 11.20],
          [75.50, 10.80],
          [75.70, 10.50],
          [76.00, 10.20],
          [76.20, 9.80],
          [76.30, 9.50],
          [76.40, 9.20],
          [76.50, 8.80],
          [76.70, 8.50],
          [77.00, 8.20],
          [77.30, 8.08],
          [77.60, 8.15],
          [77.80, 8.30],
          [78.10, 8.40],
          [78.40, 8.70],
          [78.80, 9.10],
          [79.10, 9.30],
          [79.20, 9.50],
          [79.30, 9.80],
          [79.40, 10.10],
          [79.50, 10.30],
          [79.70, 10.50],
          [79.80, 10.80],
          [79.85, 11.10],
          [79.80, 11.50],
          [79.90, 11.80],
          [80.00, 12.00],
          [80.10, 12.30],
          [80.20, 12.80],
          [80.30, 13.10],
          [80.30, 13.50],
          [80.20, 14.00],
          [80.10, 14.50],
          [80.00, 15.00],
          [80.20, 15.50],
          [80.40, 16.00],
          [80.60, 16.30],
          [81.00, 16.50],
          [81.30, 16.80],
          [81.70, 17.10],
          [82.00, 17.20],
          [82.30, 17.10],
          [82.60, 17.00],
          [83.00, 17.30],
          [83.30, 17.60],
          [83.50, 18.00],
          [83.70, 18.30],
          [84.00, 18.60],
          [84.30, 19.00],
          [84.60, 19.30],
          [84.80, 19.60],
          [85.00, 19.80],
          [85.30, 20.00],
          [85.50, 20.10],
          [85.80, 20.20],
          [86.00, 20.30],
          [86.30, 20.30],
          [86.50, 20.50],
          [86.70, 20.80],
          [86.90, 21.20],
          [87.00, 21.50],
          [87.20, 21.60],
          [87.50, 21.70],
          [87.80, 21.60],
          [88.00, 21.70],
          [88.20, 21.80],
          [88.40, 21.90],
          [88.60, 22.00],
          [88.80, 22.10],
          [89.00, 22.00],
          [89.00, 22.50],
          [89.10, 23.00],
          [89.20, 23.50],
          [89.30, 24.00],
          [89.00, 24.50],
          [88.50, 25.00],
          [88.00, 25.50],
          [88.00, 26.00],
          [87.50, 26.50],
          [87.00, 26.70],
          [86.00, 26.80],
          [85.00, 27.00],
          [84.00, 27.20],
          [83.00, 27.50],
          [82.00, 27.80],
          [81.00, 28.20],
          [80.00, 28.80],
          [79.50, 29.00],
          [79.00, 29.50],
          [78.50, 30.00],
          [78.00, 30.50],
          [77.50, 31.00],
          [77.00, 31.50],
          [76.50, 32.00],
          [76.00, 32.50],
          [75.50, 32.80],
          [75.00, 33.00],
          [74.50, 33.20],
          [74.00, 33.50],
          [73.50, 34.00],
          [73.00, 34.20],
          [72.50, 34.00],
          [71.50, 33.50],
          [71.00, 33.00],
          [70.50, 32.50],
          [70.00, 31.50],
          [69.50, 30.50],
          [69.00, 29.50],
          [68.80, 28.50],
          [68.60, 27.50],
          [68.40, 26.50],
          [68.30, 25.50],
          [68.20, 24.50],
          [68.20, 23.60]
        ]]
      }
    },
    {
      "type": "Feature",
      "properties": { "name": "Sri Lanka", "region": "sri_lanka" },
      "geometry": {
        "type": "Polygon",
        "coordinates": [[
          [79.70, 9.80],
          [80.00, 9.50],
          [80.20, 9.20],
          [80.40, 8.80],
          [80.70, 8.00],
          [80.90, 7.50],
          [81.00, 7.00],
          [81.20, 6.50],
          [81.30, 6.20],
          [81.10, 6.00],
          [80.80, 5.95],
          [80.40, 6.10],
          [80.10, 6.30],
          [79.90, 6.70],
          [79.80, 7.10],
          [79.80, 7.50],
          [79.70, 8.00],
          [79.60, 8.50],
          [79.60, 9.00],
          [79.60, 9.40],
          [79.70, 9.80]
        ]]
      }
    }
  ]
}
